ONEWEB-0144             
1 47290U 20100AJ  25229.48539753  .00000297  00000+0  79027-3 0  9994
2 47290  87.8854  51.0003 0001481  92.5356 267.5942 13.12443767224738
ONEWEB-0145             
1 47291U 20100AK  25229.53242435 -.00000406  00000+0 -11641-2 0  9990
2 47291  87.8863  51.0198 0001671  89.9170 270.2150 13.12441903224933
ONEWEB-0146             
1 47292U 20100AL  25229.52918141 -.00000270  00000+0 -78544-3 0  9999
2 47292  87.8863  51.0070 0002114  86.7947 273.3424 13.12441421224846
ONEWEB-0147             
1 47293U 20100AM  25229.49513388  .00000473  00000+0  12807-2 0  9992
2 47293  87.8861  50.9923 0001620  81.5086 278.6226 13.12441844224733
ONEWEB-0115             
1 48042U 21025A   25229.15094322 -.00000220  00000+0 -63683-3 0  9998
2 48042  87.8992  20.6081 0001841  94.9442 265.1897 13.13470351213693
ONEWEB-0152             
1 48043U 21025B   25228.70741289  .00000183  00000+0  46695-3 0  9990
2 48043  87.8987  20.7105 0001898  92.5386 267.5960 13.13470938213585
ONEWEB-0153             
1 48044U 21025C   25228.83775974 -.00000270  00000+0 -77448-3 0  9992
2 48044  87.8991  20.6832 0001744  96.6108 263.5220 13.13470031213594
ONEWEB-0154             
1 48045U 21025D   25229.13908172 -.00000317  00000+0 -90308-3 0  9997
2 48045  87.8990  20.6213 0001774  93.2492 266.8840 13.13470170213609
